{"type": "FeatureCollection", "features": [ {"type": "Feature", "properties": {"norad_id": 41556, "name": "ZIYUAN 3-02 (ZY 3-02)", "group": "resource", "lat": 81.08654810091232, "lon": 19.529659026803746, "alt_km": 496.7865925286669, "timestamp": "2025-12-27T14:26:30.173906+00:00", "meta": {"OBJECT_NAME": "ZIYUAN 3-02 (ZY 3-02)", "OBJECT_ID": "2016-033A", "EPOCH": "2025-12-27T07:45:14.779872", "MEAN_MOTION": 15.21264779, "ECCENTRICITY": 0.00116232, "INCLINATION": 97.4022, "RA_OF_ASC_NODE": 75.2452, "ARG_OF_PERICENTER": 191.9863, "MEAN_ANOMALY": 168.1098, "EPHEMERIS_TYPE": 0, "CLASSIFICATION_TYPE": "U", "NORAD_CAT_ID": 41556, "ELEMENT_SET_NO": 999, "REV_AT_EPOCH": 53185, "BSTAR": 0.00034533241, "MEAN_MOTION_DOT": 7.663e-05, "MEAN_MOTION_DDOT": 0}, "tle": {"line1": "1 41556U 16033A   25361.32308773  .00007663  00000+0  34533-3 0  9996", "line2": "2 41556  97.4022  75.2452 0011623 191.9863 168.1098 15.21264779531851"}}, "geometry": {"type": "Point", "coordinates": [19.529659026803746, 81.08654810091232]}}, {"type": "Feature", "properties": {"norad_id": 41599, "name": "CARTOSAT-2C", "group": "resource", "lat": -77.80658588949385, "lon": 96.11243171990634, "alt_km": 516.2370492095306, "timestamp": "2025-12-27T14:26:30.173916+00:00", "meta": {"OBJECT_NAME": "CARTOSAT-2C", "OBJECT_ID": "2016-040A", "EPOCH": "2025-12-27T06:53:27.269952", "MEAN_MOTION": 15.19251245, "ECCENTRICITY": 0.00104506, "INCLINATION": 97.4746, "RA_OF_ASC_NODE": 58.3855, "ARG_OF_PERICENTER": 17.1473, "MEAN_ANOMALY": 343.0112, "EPHEMERIS_TYPE": 0, "CLASSIFICATION_TYPE": "U", "NORAD_CAT_ID": 41599, "ELEMENT_SET_NO": 999, "REV_AT_EPOCH": 52761, "BSTAR": 0.00023044369, "MEAN_MOTION_DOT": 4.795e-05, "MEAN_MOTION_DDOT": 0}, "tle": {"line1": "1 41599U 16040A   25361.28712118  .00004795  00000+0  23044-3 0  9996", "line2": "2 41599  97.4746  58.3855 0010450  17.1473 343.0112 15.19251245527614"}}, "geometry": {"type": "Point", "coordinates": [96.11243171990634, -77.80658588949385]}}, {"type": "Feature", "properties": {"norad_id": 41601, "name": "SKYSAT-C1", "group": "resource", "lat": -23.966242901202264, "lon": 40.90012174230813, "alt_km": 472.45276834535434, "timestamp": "2025-12-27T14:26:30.173927+00:00", "meta": {"OBJECT_NAME": "SKYSAT-C1", "OBJECT_ID": "2016-040C", "EPOCH": "2025-12-27T02:00:47.003040", "MEAN_MOTION": 15.32852129, "ECCENTRICITY": 7.8e-05, "INCLINATION": 96.981, "RA_OF_ASC_NODE": 37.2889, "ARG_OF_PERICENTER": 305.2768, "MEAN_ANOMALY": 54.8402, "EPHEMERIS_TYPE": 0, "CLASSIFICATION_TYPE": "U", "NORAD_CAT_ID": 41601, "ELEMENT_SET_NO": 999, "REV_AT_EPOCH": 53147, "BSTAR": 0.00033559294, "MEAN_MOTION_DOT": 0.00010579, "MEAN_MOTION_DDOT": 0}, "tle": {"line1": "1 41601U 16040C   25361.08387735  .00010579  00000+0  33559-3 0  9990", "line2": "2 41601  96.9810  37.2889 0000780 305.2768  54.8402 15.32852129531471"}}, "geometry": {"type": "Point", "coordinates": [40.90012174230813, -23.966242901202264]}}, {"type": "Feature", "properties": {"norad_id": 41603, "name": "LAPAN-A3", "group": "resource", "lat": 59.79336573110214, "lon": -13.822536802230616, "alt_km": 470.1168953992528, "timestamp": "2025-12-27T14:26:30.173938+00:00", "meta": {"OBJECT_NAME": "LAPAN-A3", "OBJECT_ID": "2016-040E", "EPOCH": "2025-12-27T06:20:18.031776", "MEAN_MOTION": 15.3167436, "ECCENTRICITY": 0.00086311, "INCLINATION": 97.1437, "RA_OF_ASC_NODE": 358.293, "ARG_OF_PERICENTER": 272.9605, "MEAN_ANOMALY": 87.065, "EPHEMERIS_TYPE": 0, "CLASSIFICATION_TYPE": "U", "NORAD_CAT_ID": 41603, "ELEMENT_SET_NO": 999, "REV_AT_EPOCH": 52848, "BSTAR": 0.00017044711, "MEAN_MOTION_DOT": 5.143e-05, "MEAN_MOTION_DDOT": 0}, "tle": {"line1": "1 41603U 16040E   25361.26409759  .00005143  00000+0  17045-3 0  9996", "line2": "2 41603  97.1437 358.2930 0008631 272.9605  87.0650 15.31674360528485"}}, "geometry": {"type": "Point", "coordinates": [-13.822536802230616, 59.79336573110214]}}, {"type": "Feature", "properties": {"norad_id": 41604, "name": "BIROS", "group": "resource", "lat": -81.20062714849439, "lon": 160.44651952838612, "alt_km": 295.0273833198362, "timestamp": "2025-12-27T14:26:30.173948+00:00", "meta": {"OBJECT_NAME": "BIROS", "OBJECT_ID": "2016-040F", "EPOCH": "2025-12-27T01:17:48.160032", "MEAN_MOTION": 15.95745444, "ECCENTRICITY": 0.00039701, "INCLINATION": 97.065, "RA_OF_ASC_NODE": 33.1199, "ARG_OF_PERICENTER": 119.7348, "MEAN_ANOMALY": 240.4324, "EPHEMERIS_TYPE": 0, "CLASSIFICATION_TYPE": "U", "NORAD_CAT_ID": 41604, "ELEMENT_SET_NO": 999, "REV_AT_EPOCH": 53100, "BSTAR": 0.00067247339, "MEAN_MOTION_DOT": 0.00269024, "MEAN_MOTION_DDOT": 3.0289219e-05}, "tle": {"line1": "1 41604U 16040F   25361.05402963  .00269024  30289-4  67247-3 0  9990", "line2": "2 41604  97.0650  33.1199 0003970 119.7348 240.4324 15.95745444531008"}}, "geometry": {"type": "Point", "coordinates": [160.44651952838612, -81.20062714849439]}}, {"type": "Feature", "properties": {"norad_id": 41727, "name": "GAOFEN-3", "group": "resource", "lat": 74.26258880054878, "lon": -141.39500869910617, "alt_km": 743.5959377692561, "timestamp": "2025-12-27T14:26:30.173958+00:00", "meta": {"OBJECT_NAME": "GAOFEN-3", "OBJECT_ID": "2016-049A", "EPOCH": "2025-12-27T07:18:15.011424", "MEAN_MOTION": 14.42217456, "ECCENTRICITY": 0.00010415, "INCLINATION": 98.4042, "RA_OF_ASC_NODE": 6.6684, "ARG_OF_PERICENTER": 54.6463, "MEAN_ANOMALY": 305.4824, "EPHEMERIS_TYPE": 0, "CLASSIFICATION_TYPE": "U", "NORAD_CAT_ID": 41727, "ELEMENT_SET_NO": 999, "REV_AT_EPOCH": 49387, "BSTAR": 7.2962859e-05, "MEAN_MOTION_DOT": 1.97e-06, "MEAN_MOTION_DDOT": 0}, "tle": {"line1": "1 41727U 16049A   25361.30434041  .00000197  00000+0  72963-4 0  9994", "line2": "2 41727  98.4042   6.6684 0001041  54.6463 305.4824 14.42217456493877"}}, "geometry": {"type": "Point", "coordinates": [-141.39500869910617, 74.26258880054878]}}, {"type": "Feature", "properties": {"norad_id": 41771, "name": "SKYSAT-C4", "group": "resource", "lat": 69.99715517693542, "lon": 6.530100518199555, "alt_km": 430.2289943579608, "timestamp": "2025-12-27T14:26:30.173968+00:00", "meta": {"OBJECT_NAME": "SKYSAT-C4", "OBJECT_ID": "2016-058B", "EPOCH": "2025-12-27T01:40:48.462240", "MEAN_MOTION": 15.42665603, "ECCENTRICITY": 0.00026667, "INCLINATION": 96.9365, "RA_OF_ASC_NODE": 25.5626, "ARG_OF_PERICENTER": 121.1316, "MEAN_ANOMALY": 239.0195, "EPHEMERIS_TYPE": 0, "CLASSIFICATION_TYPE": "U", "NORAD_CAT_ID": 41771, "ELEMENT_SET_NO": 999, "REV_AT_EPOCH": 51888, "BSTAR": 0.00040521995, "MEAN_MOTION_DOT": 0.00017599, "MEAN_MOTION_DDOT": 0}, "tle": {"line1": "1 41771U 16058B   25361.07000535  .00017599  00000+0  40522-3 0  9993", "line2": "2 41771  96.9365  25.5626 0002666 121.1316 239.0195 15.42665603518888"}}, "geometry": {"type": "Point", "coordinates": [6.530100518199555, 69.99715517693542]}}, {"type": "Feature", "properties": {"norad_id": 41772, "name": "SKYSAT-C5", "group": "resource", "lat": -76.96175888851785, "lon": -167.6987242899398, "alt_km": 468.62648109759357, "timestamp": "2025-12-27T14:26:30.173979+00:00", "meta": {"OBJECT_NAME": "SKYSAT-C5", "OBJECT_ID": "2016-058C", "EPOCH": "2025-12-27T02:21:29.429856", "MEAN_MOTION": 15.34140488, "ECCENTRICITY": 0.00040611, "INCLINATION": 97.0741, "RA_OF_ASC_NODE": 44.249, "ARG_OF_PERICENTER": 222.2692, "MEAN_ANOMALY": 137.824, "EPHEMERIS_TYPE": 0, "CLASSIFICATION_TYPE": "U", "NORAD_CAT_ID": 41772, "ELEMENT_SET_NO": 999, "REV_AT_EPOCH": 51736, "BSTAR": 0.00033469855, "MEAN_MOTION_DOT": 0.0001099, "MEAN_MOTION_DDOT": 0}, "tle": {"line1": "1 41772U 16058C   25361.09825729  .00010990  00000+0  33470-3 0  9998", "line2": "2 41772  97.0741  44.2490 0004061 222.2692 137.8240 15.34140488517365"}}, "geometry": {"type": "Point", "coordinates": [-167.6987242899398, -76.96175888851785]}}, {"type": "Feature", "properties": {"norad_id": 41773, "name": "SKYSAT-C2", "group": "resource", "lat": 82.61882806297672, "lon": -46.92926544827443, "alt_km": 446.0320087187147, "timestamp": "2025-12-27T14:26:30.173991+00:00", "meta": {"OBJECT_NAME": "SKYSAT-C2", "OBJECT_ID": "2016-058D", "EPOCH": "2025-12-27T07:48:50.206176", "MEAN_MOTION": 15.37603061, "ECCENTRICITY": 0.00025195, "INCLINATION": 97.0354, "RA_OF_ASC_NODE": 25.2352, "ARG_OF_PERICENTER": 348.3195, "MEAN_ANOMALY": 11.7991, "EPHEMERIS_TYPE": 0, "CLASSIFICATION_TYPE": "U", "NORAD_CAT_ID": 41773, "ELEMENT_SET_NO": 999, "REV_AT_EPOCH": 51860, "BSTAR": 0.00034154478, "MEAN_MOTION_DOT": 0.00012534, "MEAN_MOTION_DDOT": 0}, "tle": {"line1": "1 41773U 16058D   25361.32558109  .00012534  00000+0  34154-3 0  9996", "line2": "2 41773  97.0354  25.2352 0002519 348.3195  11.7991 15.37603061518601"}}, "geometry": {"type": "Point", "coordinates": [-46.92926544827443, 82.61882806297672]}}, {"type": "Feature", "properties": {"norad_id": 41774, "name": "SKYSAT-C3", "group": "resource", "lat": -57.34542410202574, "lon": 45.59605588586726, "alt_km": 440.0740842147952, "timestamp": "2025-12-27T14:26:30.174001+00:00", "meta": {"OBJECT_NAME": "SKYSAT-C3", "OBJECT_ID": "2016-058E", "EPOCH": "2025-12-27T02:15:23.553504", "MEAN_MOTION": 15.4491929, "ECCENTRICITY": 0.00021259, "INCLINATION": 96.9283, "RA_OF_ASC_NODE": 34.1738, "ARG_OF_PERICENTER": 105.0525, "MEAN_ANOMALY": 255.0961, "EPHEMERIS_TYPE": 0, "CLASSIFICATION_TYPE": "U", "NORAD_CAT_ID": 41774, "ELEMENT_SET_NO": 999, "REV_AT_EPOCH": 51947, "BSTAR": 0.00045270234, "MEAN_MOTION_DOT": 0.00021233, "MEAN_MOTION_DDOT": 0}, "tle": {"line1": "1 41774U 16058E   25361.09402261  .00021233  00000+0  45270-3 0  9995", "line2": "2 41774  96.9283  34.1738 0002125 105.0525 255.0961 15.44919290519474"}}, "geometry": {"type": "Point", "coordinates": [45.59605588586726, -57.34542410202574]}}]}